*******************************************************************************
Ephemeris / WWW_USER Mon Mar 24 07:55:30 2025 Pasadena, USA      / Horizons    
*******************************************************************************
Target body name: (2018 SL3)                      {source: JPL#9}
Center body name: Earth (399)                     {source: DE441}
Center-site name: Mauna Kea
*******************************************************************************
Start time      : A.D. 2018-Oct-10 04:12:00.0000 UT      
Stop  time      : A.D. 2018-Oct-10 16:05:00.0000 UT      
Step-size       : 1 minutes
*******************************************************************************
Target pole/equ : undefined
Target radii    : undefined                                                    
Center geodetic : 204.5278, 19.8260847, 4.21024   {E-lon(deg),Lat(deg),Alt(km)}
Center cylindric: 204.5278, 6006.35451, 2151.0229 {E-lon(deg),Dxy(km),Dz(km)}
Center pole/equ : ITRF93                          {East-longitude positive}
Center radii    : 6378.137, 6378.137, 6356.752 km {Equator_a, b, pole_c}       
Target primary  : Sun
Vis. interferer : MOON (R_eq= 1737.400) km        {source: DE441}
Rel. light bend : Sun                             {source: DE441}
Rel. lght bnd GM: 1.3271E+11 km^3/s^2                                          
Small-body perts: Yes                             {source: SB441-N16}
Atmos refraction: NO (AIRLESS)
RA format       : HMS
Time format     : CAL 
Calendar mode   : Mixed Julian/Gregorian
RTS-only print  : NO       
EOP file        : eop.250321.p250617                                           
EOP coverage    : DATA-BASED 1962-JAN-20 TO 2025-MAR-21. PREDICTS-> 2025-JUN-16
Units conversion: 1 au= 149597870.700 km, c= 299792.458 km/s, 1 day= 86400.0 s 
Table cut-offs 1: Elevation (-90.0deg=NO ),Airmass (>38.000=NO), Daylight (YES)
Table cut-offs 2: Solar elongation (  0.0,180.0=NO ),Local Hour Angle( 0.0=NO )
Table cut-offs 3: RA/DEC angular rate (     0.0=NO )                           
*******************************************************************************
Initial IAU76/J2000 heliocentric ecliptic osculating elements (au, days, deg.):
  EPOCH=  2458395.5 ! 2018-Oct-04.00 (TDB)         Residual RMS= .22865        
   EC= .523832704749462    QR= .7523817427125933   TP= 2458455.4342692108      
   OM= 5.37828463666876    W=  89.37669799750542   IN= 4.07069530013935        
  Equivalent ICRF heliocentric cartesian coordinates (au, au/d):
   X= 1.077301312774806E+00  Y= 1.718701187822678E-01  Z= 8.135917115484240E-02
  VX=-1.117713770282307E-02 VY= 1.338322199759621E-02 VZ= 7.048365308861806E-03
Asteroid physical parameters (km, seconds, rotational period in hours):        
   GM= n.a.                RAD= n.a.               ROTPER= n.a.                
   H= 24.5                 G= .150                 B-V= n.a.                   
                           ALBEDO= n.a.            STYP= n.a.                  
*******************************************************************************
 Date__(UT)__HR:MN     R.A._________(ICRF)_________DEC
******************************************************
$$SOE
 2018-Oct-10 04:12 Cm  23 23 14.111456 +13 30 37.32600
 2018-Oct-10 04:13 Cm  23 23 13.437290 +13 30 43.48102
 2018-Oct-10 04:14 Cm  23 23 12.762775 +13 30 49.63684
 2018-Oct-10 04:15 Cm  23 23 12.087911 +13 30 55.79347
 2018-Oct-10 04:16 Cm  23 23 11.412699 +13 31 01.95089
 2018-Oct-10 04:17 Cm  23 23 10.737139 +13 31 08.10910
 2018-Oct-10 04:18 Cm  23 23 10.061231 +13 31 14.26811
 2018-Oct-10 04:19 Cm  23 23 09.384976 +13 31 20.42791
 2018-Oct-10 04:20 Cm  23 23 08.708373 +13 31 26.58849
 2018-Oct-10 04:21 Cm  23 23 08.031424 +13 31 32.74985
 2018-Oct-10 04:22 Cm  23 23 07.354129 +13 31 38.91199
 2018-Oct-10 04:23 Cm  23 23 06.676488 +13 31 45.07491
 2018-Oct-10 04:24 Cm  23 23 05.998501 +13 31 51.23860
 2018-Oct-10 04:25 Cm  23 23 05.320169 +13 31 57.40306
 2018-Oct-10 04:26 Nm  23 23 04.641492 +13 32 03.56829
 2018-Oct-10 04:27 Nm  23 23 03.962470 +13 32 09.73428
 2018-Oct-10 04:28 Nm  23 23 03.283105 +13 32 15.90103
 2018-Oct-10 04:29 Nm  23 23 02.603395 +13 32 22.06854
 2018-Oct-10 04:30 Nm  23 23 01.923343 +13 32 28.23680
 2018-Oct-10 04:31 Nm  23 23 01.242948 +13 32 34.40581
 2018-Oct-10 04:32 Nm  23 23 00.562210 +13 32 40.57558
 2018-Oct-10 04:33 Nm  23 22 59.881130 +13 32 46.74608
 2018-Oct-10 04:34 Nm  23 22 59.199708 +13 32 52.91733
 2018-Oct-10 04:35 Nm  23 22 58.517945 +13 32 59.08932
 2018-Oct-10 04:36 Nm  23 22 57.835842 +13 33 05.26205
 2018-Oct-10 04:37 Nm  23 22 57.153397 +13 33 11.43550
 2018-Oct-10 04:38 Nm  23 22 56.470613 +13 33 17.60969
 2018-Oct-10 04:39 Nm  23 22 55.787490 +13 33 23.78461
 2018-Oct-10 04:40 Nm  23 22 55.104027 +13 33 29.96024
 2018-Oct-10 04:41 Nm  23 22 54.420225 +13 33 36.13660
 2018-Oct-10 04:42 Nm  23 22 53.736085 +13 33 42.31368
 2018-Oct-10 04:43 Nm  23 22 53.051608 +13 33 48.49147
 2018-Oct-10 04:44 Nm  23 22 52.366793 +13 33 54.66998
 2018-Oct-10 04:45 Nm  23 22 51.681641 +13 34 00.84919
 2018-Oct-10 04:46 Nm  23 22 50.996152 +13 34 07.02911
 2018-Oct-10 04:47 Nm  23 22 50.310328 +13 34 13.20973
 2018-Oct-10 04:48 Nm  23 22 49.624168 +13 34 19.39105
 2018-Oct-10 04:49 Nm  23 22 48.937673 +13 34 25.57307
 2018-Oct-10 04:50 Nm  23 22 48.250844 +13 34 31.75578
 2018-Oct-10 04:51 Am  23 22 47.563681 +13 34 37.93918
 2018-Oct-10 04:52 Am  23 22 46.876183 +13 34 44.12327
 2018-Oct-10 04:53 Am  23 22 46.188353 +13 34 50.30805
 2018-Oct-10 04:54 Am  23 22 45.500190 +13 34 56.49351
 2018-Oct-10 04:55 Am  23 22 44.811695 +13 35 02.67965
 2018-Oct-10 04:56 Am  23 22 44.122869 +13 35 08.86646
 2018-Oct-10 04:57 Am  23 22 43.433711 +13 35 15.05395
 2018-Oct-10 04:58 Am  23 22 42.744222 +13 35 21.24211
 2018-Oct-10 04:59 Am  23 22 42.054404 +13 35 27.43093
 2018-Oct-10 05:00 Am  23 22 41.364256 +13 35 33.62042
 2018-Oct-10 05:01 Am  23 22 40.673778 +13 35 39.81058
 2018-Oct-10 05:02 Am  23 22 39.982972 +13 35 46.00139
 2018-Oct-10 05:03 Am  23 22 39.291839 +13 35 52.19285
 2018-Oct-10 05:04 Am  23 22 38.600377 +13 35 58.38498
 2018-Oct-10 05:05 Am  23 22 37.908589 +13 36 04.57775
 2018-Oct-10 05:06 A   23 22 37.216474 +13 36 10.77116
 2018-Oct-10 05:07 A   23 22 36.524033 +13 36 16.96523
 2018-Oct-10 05:08 A   23 22 35.831267 +13 36 23.15993
 2018-Oct-10 05:09 A   23 22 35.138176 +13 36 29.35527
 2018-Oct-10 05:10 A   23 22 34.444761 +13 36 35.55125
 2018-Oct-10 05:11 A   23 22 33.751022 +13 36 41.74787
 2018-Oct-10 05:12 A   23 22 33.056960 +13 36 47.94511
 2018-Oct-10 05:13 A   23 22 32.362576 +13 36 54.14298
 2018-Oct-10 05:14 A   23 22 31.667869 +13 37 00.34148
 2018-Oct-10 05:15 A   23 22 30.972841 +13 37 06.54059
 2018-Oct-10 05:16 A   23 22 30.277492 +13 37 12.74033
 2018-Oct-10 05:17     23 22 29.581823 +13 37 18.94068
 2018-Oct-10 05:18     23 22 28.885834 +13 37 25.14165
 2018-Oct-10 05:19     23 22 28.189526 +13 37 31.34323
 2018-Oct-10 05:20     23 22 27.492899 +13 37 37.54542
 2018-Oct-10 05:21     23 22 26.795955 +13 37 43.74821
 2018-Oct-10 05:22     23 22 26.098693 +13 37 49.95160
 2018-Oct-10 05:23     23 22 25.401114 +13 37 56.15560
 2018-Oct-10 05:24     23 22 24.703220 +13 38 02.36019
 2018-Oct-10 05:25     23 22 24.005009 +13 38 08.56537
 2018-Oct-10 05:26     23 22 23.306484 +13 38 14.77115
 2018-Oct-10 05:27     23 22 22.607645 +13 38 20.97752
 2018-Oct-10 05:28     23 22 21.908492 +13 38 27.18447
 2018-Oct-10 05:29     23 22 21.209025 +13 38 33.39201
 2018-Oct-10 05:30     23 22 20.509247 +13 38 39.60013
 2018-Oct-10 05:31     23 22 19.809156 +13 38 45.80882
 2018-Oct-10 05:32     23 22 19.108754 +13 38 52.01810
 2018-Oct-10 05:33     23 22 18.408042 +13 38 58.22794
 2018-Oct-10 05:34     23 22 17.707020 +13 39 04.43836
 2018-Oct-10 05:35     23 22 17.005689 +13 39 10.64934
 2018-Oct-10 05:36     23 22 16.304049 +13 39 16.86089
 2018-Oct-10 05:37     23 22 15.602101 +13 39 23.07301
 2018-Oct-10 05:38     23 22 14.899845 +13 39 29.28568
 2018-Oct-10 05:39     23 22 14.197283 +13 39 35.49891
 2018-Oct-10 05:40     23 22 13.494416 +13 39 41.71269
 2018-Oct-10 05:41     23 22 12.791242 +13 39 47.92703
 2018-Oct-10 05:42     23 22 12.087764 +13 39 54.14192
 2018-Oct-10 05:43     23 22 11.383982 +13 40 00.35735
 2018-Oct-10 05:44     23 22 10.679897 +13 40 06.57333
 2018-Oct-10 05:45     23 22 09.975509 +13 40 12.78985
 2018-Oct-10 05:46     23 22 09.270820 +13 40 19.00691
 2018-Oct-10 05:47     23 22 08.565828 +13 40 25.22451
 2018-Oct-10 05:48     23 22 07.860537 +13 40 31.44264
 2018-Oct-10 05:49     23 22 07.154945 +13 40 37.66130
 2018-Oct-10 05:50     23 22 06.449054 +13 40 43.88050
 2018-Oct-10 05:51     23 22 05.742865 +13 40 50.10022
 2018-Oct-10 05:52     23 22 05.036378 +13 40 56.32046
 2018-Oct-10 05:53     23 22 04.329594 +13 41 02.54123
 2018-Oct-10 05:54     23 22 03.622513 +13 41 08.76252
 2018-Oct-10 05:55     23 22 02.915137 +13 41 14.98432
 2018-Oct-10 05:56     23 22 02.207465 +13 41 21.20664
 2018-Oct-10 05:57     23 22 01.499500 +13 41 27.42948
 2018-Oct-10 05:58     23 22 00.791241 +13 41 33.65282
 2018-Oct-10 05:59     23 22 00.082689 +13 41 39.87667
 2018-Oct-10 06:00     23 21 59.373845 +13 41 46.10102
 2018-Oct-10 06:01     23 21 58.664710 +13 41 52.32588
 2018-Oct-10 06:02     23 21 57.955284 +13 41 58.55124
 2018-Oct-10 06:03     23 21 57.245568 +13 42 04.77710
 2018-Oct-10 06:04     23 21 56.535563 +13 42 11.00345
 2018-Oct-10 06:05     23 21 55.825269 +13 42 17.23030
 2018-Oct-10 06:06     23 21 55.114688 +13 42 23.45763
 2018-Oct-10 06:07     23 21 54.403820 +13 42 29.68546
 2018-Oct-10 06:08     23 21 53.692666 +13 42 35.91377
 2018-Oct-10 06:09     23 21 52.981227 +13 42 42.14257
 2018-Oct-10 06:10     23 21 52.269503 +13 42 48.37185
 2018-Oct-10 06:11     23 21 51.557494 +13 42 54.60161
 2018-Oct-10 06:12     23 21 50.845203 +13 43 00.83185
 2018-Oct-10 06:13     23 21 50.132630 +13 43 07.06256
 2018-Oct-10 06:14     23 21 49.419774 +13 43 13.29374
